{
  "type": "FeatureCollection",
  "features": [
    {
      "type": "Feature",
      "properties": {
        "norad_id": 66877,
        "name": "ZQ-3 R/B",
        "group": "last-30-days",
        "lat": -38.61057436070038,
        "lon": -22.133254306424792,
        "alt_km": 430.1162020684869,
        "timestamp": "2025-12-25T03:55:54.954632+00:00",
        "meta_object_name": "ZQ-3 R/B",
        "meta_object_id": "2025-282A",
        "meta_epoch": "2025-12-24T18:27:08.314272",
        "meta_mean_motion": 14.84153077,
        "meta_eccentricity": 0.0677199,
        "meta_inclination": 56.9495,
        "meta_ra_of_asc_node": 10.7661,
        "meta_arg_of_pericenter": 241.2094,
        "meta_mean_anomaly": 111.9325,
        "meta_ephemeris_type": 0,
        "meta_classification_type": "U",
        "meta_norad_cat_id": 66877,
        "meta_element_set_no": 999,
        "meta_rev_at_epoch": 316,
        "meta_bstar": 0.00017885,
        "meta_mean_motion_dot": 0.01059217,
        "meta_mean_motion_ddot": 7.9154e-06,
        "tle_line1": "1 66877U 25282A   25358.76884623  .01059217  79154-5  17885-3 0  9998",
        "tle_line2": "2 66877  56.9495  10.7661 0677199 241.2094 111.9325 14.84153077  3168"
      },
      "geometry": {
        "type": "Point",
        "coordinates": [
          -22.133254306424792,
          -38.61057436070038
        ]
      }
    },
    {
      "type": "Feature",
      "properties": {
        "norad_id": 66878,
        "name": "STARLINK-35866",
        "group": "last-30-days",
        "lat": -40.09529258572741,
        "lon": -27.25744880303123,
        "alt_km": 386.4722113686703,
        "timestamp": "2025-12-25T03:55:54.954645+00:00",
        "meta_object_name": "STARLINK-35866",
        "meta_object_id": "2025-283A",
        "meta_epoch": "2025-12-24T20:00:01.000224",
        "meta_mean_motion": 15.63634816,
        "meta_eccentricity": 0.0001499,
        "meta_inclination": 53.1602,
        "meta_ra_of_asc_node": 13.4958,
        "meta_arg_of_pericenter": 90.0833,
        "meta_mean_anomaly": 155.8492,
        "meta_ephemeris_type": 0,
        "meta_classification_type": "U",
        "meta_norad_cat_id": 66878,
        "meta_element_set_no": 999,
        "meta_rev_at_epoch": 437,
        "meta_bstar": -0.023713,
        "meta_mean_motion_dot": -0.01979599,
        "meta_mean_motion_ddot": 0,
        "tle_line1": "1 66878U 25283A   25358.83334491 -.01979599  00000+0 -23713-1 0  9990",
        "tle_line2": "2 66878  53.1602  13.4958 0001499  90.0833 155.8492 15.63634816  4371"
      },
      "geometry": {
        "type": "Point",
        "coordinates": [
          -27.25744880303123,
          -40.09529258572741
        ]
      }
    },
    {
      "type": "Feature",
      "properties": {
        "norad_id": 66879,
        "name": "STARLINK-35749",
        "group": "last-30-days",
        "lat": -37.65892678037365,
        "lon": -23.477912629164194,
        "alt_km": 386.29281360851473,
        "timestamp": "2025-12-25T03:55:54.954655+00:00",
        "meta_object_name": "STARLINK-35749",
        "meta_object_id": "2025-283B",
        "meta_epoch": "2025-12-24T20:00:01.000224",
        "meta_mean_motion": 15.63631146,
        "meta_eccentricity": 0.0001472,
        "meta_inclination": 53.1601,
        "meta_ra_of_asc_node": 13.487,
        "meta_arg_of_pericenter": 90.0319,
        "meta_mean_anomaly": 159.7317,
        "meta_ephemeris_type": 0,
        "meta_classification_type": "U",
        "meta_norad_cat_id": 66879,
        "meta_element_set_no": 999,
        "meta_rev_at_epoch": 437,
        "meta_bstar": -0.0236,
        "meta_mean_motion_dot": -0.01971086,
        "meta_mean_motion_ddot": 0,
        "tle_line1": "1 66879U 25283B   25358.83334491 -.01971086  00000+0 -23600-1 0  9999",
        "tle_line2": "2 66879  53.1601  13.4870 0001472  90.0319 159.7317 15.63631146  4376"
      },
      "geometry": {
        "type": "Point",
        "coordinates": [
          -23.477912629164194,
          -37.65892678037365
        ]
      }
    },
    {
      "type": "Feature",
      "properties": {
        "norad_id": 66880,
        "name": "STARLINK-35844",
        "group": "last-30-days",
        "lat": -38.89191434240869,
        "lon": -25.334114650289237,
        "alt_km": 386.35870728596547,
        "timestamp": "2025-12-25T03:55:54.954665+00:00",
        "meta_object_name": "STARLINK-35844",
        "meta_object_id": "2025-283C",
        "meta_epoch": "2025-12-24T20:00:01.000224",
        "meta_mean_motion": 15.63631074,
        "meta_eccentricity": 0.0001384,
        "meta_inclination": 53.1601,
        "meta_ra_of_asc_node": 13.4918,
        "meta_arg_of_pericenter": 95.3074,
        "meta_mean_anomaly": 152.5381,
        "meta_ephemeris_type": 0,
        "meta_classification_type": "U",
        "meta_norad_cat_id": 66880,
        "meta_element_set_no": 999,
        "meta_rev_at_epoch": 437,
        "meta_bstar": -0.023552,
        "meta_mean_motion_dot": -0.01967448,
        "meta_mean_motion_ddot": 0,
        "tle_line1": "1 66880U 25283C   25358.83334491 -.01967448  00000+0 -23552-1 0  9994",
        "tle_line2": "2 66880  53.1601  13.4918 0001384  95.3074 152.5381 15.63631074  4371"
      },
      "geometry": {
        "type": "Point",
        "coordinates": [
          -25.334114650289237,
          -38.89191434240869
        ]
      }
    },
    {
      "type": "Feature",
      "properties": {
        "norad_id": 66881,
        "name": "STARLINK-35860",
        "group": "last-30-days",
        "lat": -36.39650941076533,
        "lon": -21.680639192516807,
        "alt_km": 386.23263172285806,
        "timestamp": "2025-12-25T03:55:54.954677+00:00",
        "meta_object_name": "STARLINK-35860",
        "meta_object_id": "2025-283D",
        "meta_epoch": "2025-12-24T20:00:01.000224",
        "meta_mean_motion": 15.63627348,
        "meta_eccentricity": 0.0001485,
        "meta_inclination": 53.16,
        "meta_ra_of_asc_node": 13.4833,
        "meta_arg_of_pericenter": 92.8342,
        "meta_mean_anomaly": 158.8454,
        "meta_ephemeris_type": 0,
        "meta_classification_type": "U",
        "meta_norad_cat_id": 66881,
        "meta_element_set_no": 999,
        "meta_rev_at_epoch": 437,
        "meta_bstar": -0.023482,
        "meta_mean_motion_dot": -0.01962103,
        "meta_mean_motion_ddot": 0,
        "tle_line1": "1 66881U 25283D   25358.83334491 -.01962103  00000+0 -23482-1 0  9990",
        "tle_line2": "2 66881  53.1600  13.4833 0001485  92.8342 158.8454 15.63627348  4378"
      },
      "geometry": {
        "type": "Point",
        "coordinates": [
          -21.680639192516807,
          -36.39650941076533
        ]
      }
    },
    {
      "type": "Feature",
      "properties": {
        "norad_id": 66882,
        "name": "STARLINK-35912",
        "group": "last-30-days",
        "lat": -35.10734763237858,
        "lon": -19.939459429049016,
        "alt_km": 386.09353568683673,
        "timestamp": "2025-12-25T03:55:54.954688+00:00",
        "meta_object_name": "STARLINK-35912",
        "meta_object_id": "2025-283E",
        "meta_epoch": "2025-12-24T20:00:01.000224",
        "meta_mean_motion": 15.63634301,
        "meta_eccentricity": 0.0001407,
        "meta_inclination": 53.1602,
        "meta_ra_of_asc_node": 13.4805,
        "meta_arg_of_pericenter": 91.3934,
        "meta_mean_anomaly": 162.2004,
        "meta_ephemeris_type": 0,
        "meta_classification_type": "U",
        "meta_norad_cat_id": 66882,
        "meta_element_set_no": 999,
        "meta_rev_at_epoch": 437,
        "meta_bstar": -0.023628,
        "meta_mean_motion_dot": -0.01973271,
        "meta_mean_motion_ddot": 0,
        "tle_line1": "1 66882U 25283E   25358.83334491 -.01973271  00000+0 -23628-1 0  9991",
        "tle_line2": "2 66882  53.1602  13.4805 0001407  91.3934 162.2004 15.63634301  4372"
      },
      "geometry": {
        "type": "Point",
        "coordinates": [
          -19.939459429049016,
          -35.10734763237858
        ]
      }
    },
    {
      "type": "Feature",
      "properties": {
        "norad_id": 66883,
        "name": "STARLINK-35947",
        "group": "last-30-days",
        "lat": -33.79271417496087,
        "lon": -18.25327002093177,
        "alt_km": 385.9470127824725,
        "timestamp": "2025-12-25T03:55:54.954700+00:00",
        "meta_object_name": "STARLINK-35947",
        "meta_object_id": "2025-283F",
        "meta_epoch": "2025-12-24T20:00:01.000224",
        "meta_mean_motion": 15.63630334,
        "meta_eccentricity": 0.0001284,
        "meta_inclination": 53.1601,
        "meta_ra_of_asc_node": 13.4763,
        "meta_arg_of_pericenter": 92.796,
        "meta_mean_anomaly": 162.7171,
        "meta_ephemeris_type": 0,
        "meta_classification_type": "U",
        "meta_norad_cat_id": 66883,
        "meta_element_set_no": 999,
        "meta_rev_at_epoch": 442,
        "meta_bstar": -0.023549,
        "meta_mean_motion_dot": -0.01967074,
        "meta_mean_motion_ddot": 0,
        "tle_line1": "1 66883U 25283F   25358.83334491 -.01967074  00000+0 -23549-1 0  9998",
        "tle_line2": "2 66883  53.1601  13.4763 0001284  92.7960 162.7171 15.63630334  4420"
      },
      "geometry": {
        "type": "Point",
        "coordinates": [
          -18.25327002093177,
          -33.79271417496087
        ]
      }
    }
  ]
}